COSMOS 2426 (717)       
1 29671U 06062B   20118.44947049  .00000032  00000-0  10000-3 0  9991
2 29671  64.9882 269.6336 0019901 170.5155 215.7355  2.12962347103810
COSMOS 2433 (720)       
1 32275U 07052A   20118.47571074 -.00000051  00000-0  10000-3 0  9991
2 32275  65.9660  30.6186 0003306 284.6741 235.2986  2.13104256 97321
COSMOS 2432 (719)       
1 32276U 07052B   20118.49370147 -.00000051  00000-0  10000-3 0  9992
2 32276  65.9779  30.7055 0011973 331.9912 152.0918  2.13103749 97321
COSMOS 2434 (721)       
1 32393U 07065A   20118.44967913  .00000031  00000-0  00000-0 0  9997
2 32393  64.5943 268.1674 0004793  93.2907 294.2428  2.13103265 96032
COSMOS 2436 (723)       
1 32395U 07065C   20118.53534815  .00000032  00000-0  10000-3 0  9995
2 32395  64.6001 268.2130 0014621   7.9468 221.5597  2.13102943 95966
COSMOS 2456 (730)       
1 36111U 09070A   20118.28291051  .00000072  00000-0  00000+0 0  9996
2 36111  64.2225 147.8443 0005834 305.7567 127.2435  2.13102854 80692
COSMOS 2457 (733)       
1 36112U 09070B   20118.40609259  .00000072  00000-0  00000+0 0  9994
2 36112  64.2038 147.7350 0004935 190.3704 100.6506  2.13101480 80691
COSMOS 2459 (731)       
1 36400U 10007A   20118.21021862 -.00000052  00000-0  10000-3 0  9997
2 36400  65.8683  29.6054 0027207 349.4680 182.0614  2.13105158 79047
COSMOS 2461 (735)       
1 36401U 10007B   20118.23408314 -.00000052  00000-0  10000-3 0  9991
2 36401  65.8628  29.5743 0007538  50.2068  48.3036  2.13102033 79044
COSMOS 2460 (732)       
1 36402U 10007C   20118.33115531 -.00000052  00000-0  10000-3 0  9999
2 36402  65.8509  29.5314 0001760 344.3616 227.8443  2.13101406 79043
COSMOS 2464 (736)       
1 37139U 10041C   20118.51889126  .00000031  00000-0  00000-0 0  9995
2 37139  64.1945 267.6305 0027109  14.9391 289.6751  2.13100682 75114
COSMOS 2474 (742)       
1 37829U 11055A   20118.37224490  .00000072  00000-0  00000-0 0  9993
2 37829  64.5420 148.8452 0010263 248.7725 107.7485  2.13101749 66687
COSMOS 2476 (744)       
1 37867U 11064A   20118.32835904  .00000072  00000-0  00000-0 0  9998
2 37867  64.5228 148.8919 0021119 241.7586 127.3347  2.13101906 66043
COSMOS 2477 (745)       
1 37868U 11064B   20118.29490171  .00000072  00000-0  00000-0 0  9998
2 37868  64.5298 148.9493 0018719 243.4017 278.5515  2.13101834 65998
COSMOS 2475 (743)       
1 37869U 11064C   20118.25561605  .00000072  00000-0  00000-0 0  9996
2 37869  64.5367 148.9508 0023128 263.1028 186.0409  2.13101967 66009
COSMOS 2485 (747)       
1 39155U 13019A   20118.39651378  .00000072  00000-0  00000-0 0  9990
2 39155  64.6893 149.1472 0021437 237.6786 228.2868  2.13101909 54512
COSMOS 2492 (754)       
1 39620U 14012A   20118.44315029 -.00000052  00000-0  10000-3 0  9990
2 39620  65.7405  29.3161 0015265 327.2372 209.6034  2.13103280 47461
COSMOS 2500 (755)       
1 40001U 14032A   20118.60184604 -.00000052  00000-0  00000-0 0  9994
2 40001  65.6821  29.2316 0005014 219.5747 299.6740  2.13102682 45688
COSMOS 2501 (702K)      
1 40315U 14075A   20118.58159375  .00000030  00000-0  00000+0 0  9997
2 40315  63.9110 268.5911 0015403 203.5836  95.5230  2.13098573 42083
COSMOS 2514 (751)       
1 41330U 16008A   20118.38573359 -.00000053  00000-0  00000-0 0  9990
2 41330  65.4846  29.1243 0008738 224.0658 311.7166  2.13103033 32848
COSMOS 2516 (753)       
1 41554U 16032A   20118.37182167  .00000030  00000-0  00000-0 0  9991
2 41554  64.1348 268.6560 0011127 211.9684 203.8959  2.13101647 30456
COSMOS 2522 (752)       
1 42939U 17055A   20118.44148718  .00000031  00000-0  00000-0 0  9998
2 42939  64.3679 268.8185 0005358 245.3824  90.4981  2.13101929 20204
COSMOS 2527 (756)       
1 43508U 18053A   20118.39767957  .00000073  00000-0  00000+0 0  9991
2 43508  64.8541 148.9840 0008973 242.1883  91.8119  2.13102651 14497
COSMOS 2529 (757)       
1 43687U 18086A   20118.60504396  .00000032  00000-0  00000-0 0  9991
2 43687  64.5819 268.9216 0008017 275.9044 141.0679  2.13102018 11529
COSMOS 2534 (758)       
1 44299U 19030A   20118.43936448  .00000031  00000-0  00000-0 0  9998
2 44299  64.6491 268.7377 0011381 296.2300 128.7057  2.13101988  7163
